NORAD_CAT_ID,OBJECT_NAME,OBJECT_TYPE,EPOCH,MEAN_MOTION,ECCENTRICITY,INCLINATION,RA_OF_ASC_NODE,ARG_OF_PERICENTER,MEAN_ANOMALY,BSTAR,MEAN_MOTION_DOT,MEAN_MOTION_DDOT,TLE_LINE0,TLE_LINE1,TLE_LINE2,SEMIMAJOR_AXIS,PERIOD,APOGEE,PERIGEE,DECAYED
53263.0,STARLINK-4130,PAYLOAD,2023-11-09 14:42:46,15.08848422,0.0001311,53.2179,54.7568,74.4731,285.6405,0.00027611,4.11e-05,0.0,0 STARLINK-4130,1 53263U 22086X   23313.61303605  .00004110  00000-0  27611-3 0  9999,2 53263  53.2179  54.7568 0001311  74.4731 285.6405 15.08848422 72400,6917.855,95.437,540.627,538.813,0.0
53263.0,STARLINK-4130,PAYLOAD,2023-11-10 12:58:09,15.08854609,0.0001496,53.2179,50.5893,87.2373,272.879,-0.00011111,-2.057e-05,0.0,0 STARLINK-4130,1 53263U 22086X   23314.54038690 -.00002057  00000-0 -11111-3 0  9999,2 53263  53.2179  50.5893 0001496  87.2373 272.8790 15.08854609 72727,6917.836,95.437,540.736,538.666,0.0
53263.0,STARLINK-4130,PAYLOAD,2023-11-11 00:05:51,15.088543,0.0001365,53.2177,48.5101,83.3461,276.7687,-4.6899e-05,-1.035e-05,0.0,0 STARLINK-4130,1 53263U 22086X   23315.00406348 -.00001035  00000-0 -46899-4 0  9997,2 53263  53.2177  48.5101 0001365  83.3461 276.7687 15.08854300 72618,6917.837,95.437,540.646,538.757,0.0
53263.0,STARLINK-4130,PAYLOAD,2023-11-11 12:48:56,15.0885636,0.0001472,53.2197,46.1267,103.1616,256.9541,0.00048496,7.442e-05,0.0,0 STARLINK-4130,1 53263U 22086X   23315.53398339  .00007442  00000-0  48496-3 0  9995,2 53263  53.2197  46.1267 0001472 103.1616 256.9541 15.08856360 72874,6917.83,95.437,540.714,538.677,0.0
53263.0,STARLINK-4130,PAYLOAD,2023-11-12 11:04:20,15.08836363,0.0001467,53.2188,41.9664,92.3418,267.7742,6.6741e-05,7.74e-06,0.0,0 STARLINK-4130,1 53263U 22086X   23316.46135149  .00000774  00000-0  66741-4 0  9991,2 53263  53.2188  41.9664 0001467  92.3418 267.7742 15.08836363 72831,6917.892,95.438,540.771,538.742,0.0
53263.0,STARLINK-4130,PAYLOAD,2023-11-12 12:39:43,15.08840582,0.0001589,53.2193,41.6678,86.4757,273.6417,-4.3543e-06,-3.57e-06,0.0,0 STARLINK-4130,1 53263U 22086X   23316.52759032 -.00000357  00000-0 -43543-5 0  9996,2 53263  53.2193  41.6678 0001589  86.4757 273.6417 15.08840582 73029,6917.879,95.438,540.843,538.644,0.0
53263.0,STARLINK-4130,PAYLOAD,2023-11-13 12:30:30,15.08846597,0.0001494,53.2182,37.2101,93.1947,266.9217,8.1886e-05,1.016e-05,0.0,0 STARLINK-4130,1 53263U 22086X   23317.52118430  .00001016  00000-0  81886-4 0  9990,2 53263  53.2182  37.2101 0001494  93.1947 266.9217 15.08846597 72990,6917.86,95.437,540.759,538.692,0.0
53263.0,STARLINK-4130,PAYLOAD,2023-11-13 22:02:48,15.08850967,0.0001618,53.2186,35.4271,91.838,268.2797,-0.00010843,-2.014e-05,0.0,0 STARLINK-4130,1 53263U 22086X   23317.91862261 -.00002014  00000-0 -10843-3 0  9996,2 53263  53.2186  35.4271 0001618  91.8380 268.2797 15.08850967 73238,6917.847,95.437,540.831,538.593,0.0
53263.0,STARLINK-4130,PAYLOAD,2023-11-14 04:24:22,15.08822802,0.0002084,53.2197,34.2402,101.3782,258.7445,0.00024019,3.535e-05,0.0,0 STARLINK-4130,1 53263U 22086X   23318.18359439  .00003535  00000-0  24019-3 0  9991,2 53263  53.2197  34.2402 0002084 101.3782 258.7445 15.08822802 73099,6917.933,95.439,541.24,538.356,0.0
53263.0,STARLINK-4130,PAYLOAD,2023-11-14 12:21:18,15.08826968,0.0001542,53.218,32.7508,90.1437,269.9732,5.3189e-05,5.58e-06,0.0,0 STARLINK-4130,1 53263U 22086X   23318.51479962  .00000558  00000-0  53189-4 0  9995,2 53263  53.2180  32.7508 0001542  90.1437 269.9732 15.08826968 73327,6917.92,95.438,540.852,538.718,0.0
53263.0,STARLINK-4130,PAYLOAD,2023-11-14 21:53:37,15.08832073,0.000167,53.2194,30.9674,93.0037,267.1146,7.0677e-05,8.37e-06,0.0,0 STARLINK-4130,1 53263U 22086X   23318.91223884  .00000837  00000-0  70677-4 0  9990,2 53263  53.2194  30.9674 0001670  93.0037 267.1146 15.08832073 73385,6917.905,95.438,540.925,538.614,0.0
53263.0,STARLINK-4130,PAYLOAD,2023-11-15 04:15:09,15.0884178,0.0001533,53.2188,29.7771,90.8311,269.2857,4.2193e-05,3.84e-06,0.0,0 STARLINK-4130,1 53263U 22086X   23319.17719496  .00000384  00000-0  42193-4 0  9997,2 53263  53.2188  29.7771 0001533  90.8311 269.2857 15.08841780 73242,6917.875,95.437,540.8,538.679,0.0
53263.0,STARLINK-4130,PAYLOAD,2023-11-15 12:12:04,15.08848465,0.0001563,53.2187,28.2904,90.8916,269.2255,0.00011966,1.617e-05,0.0,0 STARLINK-4130,1 53263U 22086X   23319.50838977  .00001617  00000-0  11966-3 0  9993,2 53263  53.2187  28.2904 0001563  90.8916 269.2255 15.08848465 73471,6917.855,95.437,540.801,538.638,0.0
53263.0,STARLINK-4130,PAYLOAD,2023-11-15 21:44:24,15.08841747,0.0001787,53.2183,26.506,87.1782,272.9415,6.4209e-05,7.34e-06,0.0,0 STARLINK-4130,1 53263U 22086X   23319.90583386  .00000734  00000-0  64209-4 0  9996,2 53263  53.2183  26.5060 0001787  87.1782 272.9415 15.08841747 73531,6917.875,95.437,540.976,538.504,0.0
53263.0,STARLINK-4130,PAYLOAD,2023-11-16 04:05:56,15.08837906,0.0002059,53.2184,25.317,84.3885,275.7342,0.00011742,1.581e-05,0.0,0 STARLINK-4130,1 53263U 22086X   23320.17079741  .00001581  00000-0  11742-3 0  9996,2 53263  53.2184  25.3170 0002059  84.3885 275.7342 15.08837906 73393,6917.887,95.438,541.176,538.327,0.0
53263.0,STARLINK-4130,PAYLOAD,2023-11-16 08:52:06,15.08831161,0.0001616,53.2184,24.4249,85.523,274.5947,0.00014377,2e-05,0.0,0 STARLINK-4130,1 53263U 22086X   23320.36952247  .00002000  00000-0  14377-3 0  9992,2 53263  53.2184  24.4249 0001616  85.5230 274.5947 15.08831161 73424,6917.907,95.438,540.89,538.654,0.0
53263.0,STARLINK-4130,PAYLOAD,2023-11-16 21:35:11,15.08837518,0.0001848,53.2192,22.0458,85.3112,274.8091,9.9688e-05,1.299e-05,0.0,0 STARLINK-4130,1 53263U 22086X   23320.89944065  .00001299  00000-0  99688-4 0  9997,2 53263  53.2192  22.0458 0001848  85.3112 274.8091 15.08837518 73686,6917.888,95.438,541.031,538.475,0.0
53263.0,STARLINK-4130,PAYLOAD,2023-11-17 03:56:43,15.08843401,0.0001727,53.2191,20.8565,84.881,275.2379,8.0695e-05,9.97e-06,0.0,0 STARLINK-4130,1 53263U 22086X   23321.16439672  .00000997  00000-0  80695-4 0  9993,2 53263  53.2191  20.8565 0001727  84.8810 275.2379 15.08843401 73542,6917.87,95.437,540.93,538.54,0.0
53263.0,STARLINK-4130,PAYLOAD,2023-11-17 10:18:16,15.08850427,0.000154,53.2176,19.6668,87.7959,272.321,1.3378e-05,-7.5e-07,0.0,0 STARLINK-4130,1 53263U 22086X   23321.42935201 -.00000075  00000-0  13378-4 0  9993,2 53263  53.2176  19.6668 0001540  87.7959 272.3210 15.08850427 73766,6917.849,95.437,540.779,538.648,0.0
53263.0,STARLINK-4130,PAYLOAD,2023-11-17 21:25:58,15.08839169,0.0001379,53.2167,17.5844,92.8518,267.2632,5.1255e-05,5.28e-06,0.0,0 STARLINK-4130,1 53263U 22086X   23321.89303702  .00000528  00000-0  51255-4 0  9997,2 53263  53.2167  17.5844 0001379  92.8518 267.2632 15.08839169 73836,6917.883,95.438,540.702,538.794,0.0
53263.0,STARLINK-4130,PAYLOAD,2023-11-18 03:47:31,15.08829954,0.0001417,53.2166,16.3942,93.5912,266.5242,0.00015355,2.156e-05,0.0,0 STARLINK-4130,1 53263U 22086X   23322.15800058  .00002156  00000-0  15355-3 0  9992,2 53263  53.2166  16.3942 0001417  93.5912 266.5242 15.08829954 73694,6917.911,95.438,540.756,538.796,0.0
53263.0,STARLINK-4130,PAYLOAD,2023-11-18 10:09:03,15.08838176,0.0001501,53.218,15.2054,90.0263,270.0901,6.0919e-05,6.82e-06,0.0,0 STARLINK-4130,1 53263U 22086X   23322.42295933  .00000682  00000-0  60919-4 0  9991,2 53263  53.2180  15.2054 0001501  90.0263 270.0901 15.08838176 73910,6917.886,95.438,540.789,538.713,0.0
53263.0,STARLINK-4130,PAYLOAD,2023-11-18 21:16:45,15.08836691,0.0001326,53.2185,13.1233,92.977,267.1374,8.942e-05,1.135e-05,0.0,0 STARLINK-4130,1 53263U 22086X   23322.88663779  .00001135  00000-0  89420-4 0  9990,2 53263  53.2185  13.1233 0001326  92.9770 267.1374 15.08836691 73988,6917.891,95.438,540.673,538.838,0.0
53263.0,STARLINK-4130,PAYLOAD,2023-11-19 03:38:17,15.08840041,0.0001356,53.2182,11.9339,91.7362,268.3785,9.6391e-05,1.246e-05,0.0,0 STARLINK-4130,1 53263U 22086X   23323.15159590  .00001246  00000-0  96391-4 0  9990,2 53263  53.2182  11.9339 0001356  91.7362 268.3785 15.08840041 73843,6917.88,95.438,540.683,538.807,0.0
53263.0,STARLINK-4130,PAYLOAD,2023-11-19 09:59:50,15.08849419,0.0001513,53.2179,10.7448,88.6539,271.4626,6.1019e-05,6.83e-06,0.0,0 STARLINK-4130,1 53263U 22086X   23323.41655182  .00000683  00000-0  61019-4 0  9990,2 53263  53.2179  10.7448 0001513  88.6539 271.4626 15.08849419 74065,6917.852,95.437,540.763,538.67,0.0
53263.0,STARLINK-4130,PAYLOAD,2023-11-20 03:29:05,15.08836719,0.0001529,53.2174,7.4737,87.0504,273.0663,6.5979e-05,7.62e-06,0.0,0 STARLINK-4130,1 53263U 22086X   23324.14519851  .00000762  00000-0  65979-4 0  9990,2 53263  53.2174   7.4737 0001529  87.0504 273.0663 15.08836719 73995,6917.89,95.438,540.813,538.698,0.0
53263.0,STARLINK-4130,PAYLOAD,2023-11-20 11:26:00,15.08841946,0.0001525,53.218,5.9867,87.8163,272.3004,8.0277e-05,9.9e-06,0.0,0 STARLINK-4130,1 53263U 22086X   23324.47639563  .00000990  00000-0  80277-4 0  9990,2 53263  53.2180   5.9867 0001525  87.8163 272.3004 15.08841946 74220,6917.874,95.437,540.794,538.684,0.0
53263.0,STARLINK-4130,PAYLOAD,2023-11-20 19:22:56,15.08838458,0.0001529,53.2179,4.4999,87.4069,272.7098,4.4714e-05,4.24e-06,0.0,0 STARLINK-4130,1 53263U 22086X   23324.80759877  .00000424  00000-0  44714-4 0  9996,2 53263  53.2179   4.4999 0001529  87.4069 272.7098 15.08838458 74279,6917.885,95.438,540.808,538.692,0.0
53263.0,STARLINK-4130,PAYLOAD,2023-11-21 09:41:24,15.08847544,0.0001597,53.2188,1.8235,88.9793,271.1382,6.6815e-05,7.76e-06,0.0,0 STARLINK-4130,1 53263U 22086X   23325.40375215  .00000776  00000-0  66815-4 0  9999,2 53263  53.2188   1.8235 0001597  88.9793 271.1382 15.08847544 74183,6917.857,95.437,540.827,538.618,0.0
53263.0,STARLINK-4130,PAYLOAD,2023-11-21 11:16:47,15.08848773,0.0001582,53.2183,1.5265,88.3736,271.7438,7.4208e-05,8.93e-06,0.0,0 STARLINK-4130,1 53263U 22086X   23325.46999123  .00000893  00000-0  74208-4 0  9990,2 53263  53.2183   1.5265 0001582  88.3736 271.7438 15.08848773 74377,6917.854,95.437,540.813,538.624,0.0
